{
  "type": "FeatureCollection",
  "features": [
    {
      "type": "Feature",
      "id": 1,
      "properties": {
        "site_id": 1
      },
      "geometry": {
        "type": "Polygon",
        "coordinates": [
          [
            [
              121.50715411072335,
              25.2574440966224
            ],
            [
              121.50715411072335,
              25.2574440966224
            ],
            [
              121.50715411072335,
              25.32615408769491
            ],
            [
              121.42147298416236,
              25.32615408769491
            ],
            [
              121.50715411072335,
              25.2574440966224
            ]
          ]
        ]
      }
    },
    {
      "type": "Feature",
      "id": 2,
      "properties": {
        "site_id": 2
      },
      "geometry": {
        "type": "Polygon",
        "coordinates": [
          [
            [
              121.11596113938931,
              25.039139282974073
            ],
            [
              121.11596113938931,
              25.039139282974073
            ],
            [
              121.11596113938931,
              25.12047660734495
            ],
            [
              120.99670477915227,
              25.12047660734495
            ],
            [
              121.11596113938931,
              25.039139282974073
            ]
          ]
        ]
      }
    },
    {
      "type": "Feature",
      "id": 3,
      "properties": {
        "site_id": 3
      },
      "geometry": {
        "type": "Polygon",
        "coordinates": [
          [
            [
              121.0051795633903,
              24.937715066966867
            ],
            [
              121.0051795633903,
              24.937715066966867
            ],
            [
              121.0051795633903,
              25.001306443184504
            ],
            [
              120.9283623691008,
              25.001306443184504
            ],
            [
              121.0051795633903,
              24.937715066966867
            ]
          ]
        ]
      }
    },
    {
      "type": "Feature",
      "id": 4,
      "properties": {
        "site_id": 4
      },
      "geometry": {
        "type": "Polygon",
        "coordinates": [
          [
            [
              120.8776503377654,
              24.741967982189312
            ],
            [
              120.8776503377654,
              24.741967982189312
            ],
            [
              120.8776503377654,
              24.876565817189896
            ],
            [
              120.80707684278664,
              24.876565817189896
            ],
            [
              120.8776503377654,
              24.741967982189312
            ]
          ]
        ]
      }
    },
    {
      "type": "Feature",
      "id": 5,
      "properties": {
        "site_id": 5
      },
      "geometry": {
        "type": "Polygon",
        "coordinates": [
          [
            [
              120.82411606135784,
              24.667980990675158
            ],
            [
              120.82411606135784,
              24.667980990675158
            ],
            [
              120.82411606135784,
              24.790402491617623
            ],
            [
              120.71088025985894,
              24.790402491617623
            ],
            [
              120.82411606135784,
              24.667980990675158
            ]
          ]
        ]
      }
    },
    {
      "type": "Feature",
      "id": 6,
      "properties": {
        "site_id": 6
      },
      "geometry": {
        "type": "Polygon",
        "coordinates": [
          [
            [
              120.74262932275735,
              24.583100927628628
            ],
            [
              120.74262932275735,
              24.583100927628628
            ],
            [
              120.74262932275735,
              24.672740258247426
            ],
            [
              120.66054051284462,
              24.672740258247426
            ],
            [
              120.74262932275735,
              24.583100927628628
            ]
          ]
        ]
      }
    },
    {
      "type": "Feature",
      "id": 7,
      "properties": {
        "site_id": 7
      },
      "geometry": {
        "type": "Polygon",
        "coordinates": [
          [
            [
              120.59899449826722,
              24.32776411297204
            ],
            [
              120.59899449826722,
              24.32776411297204
            ],
            [
              120.59899449826722,
              24.486653575766304
            ],
            [
              120.47579070043929,
              24.486653575766304
            ],
            [
              120.59899449826722,
              24.32776411297204
            ]
          ]
        ]
      }
    },
    {
      "type": "Feature",
      "id": 8,
      "properties": {
        "site_id": 8
      },
      "geometry": {
        "type": "Polygon",
        "coordinates": [
          [
            [
              120.3656028838222,
              24.2951459058362
            ],
            [
              120.3656028838222,
              24.2951459058362
            ],
            [
              120.3656028838222,
              24.399015656829267
            ],
            [
              120.20271363422738,
              24.399015656829267
            ],
            [
              120.3656028838222,
              24.2951459058362
            ]
          ]
        ]
      }
    },
    {
      "type": "Feature",
      "id": 9,
      "properties": {
        "site_id": 9
      },
      "geometry": {
        "type": "Polygon",
        "coordinates": [
          [
            [
              120.0070167743043,
              24.262041062253385
            ],
            [
              120.0070167743043,
              24.262041062253385
            ],
            [
              120.0070167743043,
              24.34570623164407
            ],
            [
              119.78876338563668,
              24.34570623164407
            ],
            [
              120.0070167743043,
              24.262041062253385
            ]
          ]
        ]
      }
    },
    {
      "type": "Feature",
      "id": 10,
      "properties": {
        "site_id": 10
      },
      "geometry": {
        "type": "Polygon",
        "coordinates": [
          [
            [
              120.13890978921131,
              24.255567684567282
            ],
            [
              120.13890978921131,
              24.255567684567282
            ],
            [
              120.13890978921131,
              24.3414106759018
            ],
            [
              119.95309735183054,
              24.3414106759018
            ],
            [
              120.13890978921131,
              24.255567684567282
            ]
          ]
        ]
      }
    },
    {
      "type": "Feature",
      "id": 11,
      "properties": {
        "site_id": 11
      },
      "geometry": {
        "type": "Polygon",
        "coordinates": [
          [
            [
              119.80810517665621,
              24.06089622121838
            ],
            [
              119.80810517665621,
              24.06089622121838
            ],
            [
              119.80810517665621,
              24.269580050793476
            ],
            [
              119.61042893454618,
              24.269580050793476
            ],
            [
              119.80810517665621,
              24.06089622121838
            ]
          ]
        ]
      }
    },
    {
      "type": "Feature",
      "id": 12,
      "properties": {
        "site_id": 12
      },
      "geometry": {
        "type": "Polygon",
        "coordinates": [
          [
            [
              119.95309735183054,
              24.192705544925776
            ],
            [
              119.95309735183054,
              24.192705544925776
            ],
            [
              119.95309735183054,
              24.2687020109871
            ],
            [
              119.75985176673335,
              24.2687020109871
            ],
            [
              119.95309735183054,
              24.192705544925776
            ]
          ]
        ]
      }
    },
    {
      "type": "Feature",
      "id": 13,
      "properties": {
        "site_id": 13
      },
      "geometry": {
        "type": "Polygon",
        "coordinates": [
          [
            [
              120.091187902913,
              24.186637595540923
            ],
            [
              120.091187902913,
              24.186637595540923
            ],
            [
              120.091187902913,
              24.262041062253385
            ],
            [
              119.9060581287352,
              24.262041062253385
            ],
            [
              120.091187902913,
              24.186637595540923
            ]
          ]
        ]
      }
    },
    {
      "type": "Feature",
      "id": 14,
      "properties": {
        "site_id": 14
      },
      "geometry": {
        "type": "Polygon",
        "coordinates": [
          [
            [
              119.9060581287352,
              24.119106098783682
            ],
            [
              119.9060581287352,
              24.119106098783682
            ],
            [
              119.9060581287352,
              24.19884944175947
            ],
            [
              119.70802121417998,
              24.19884944175947
            ],
            [
              119.9060581287352,
              24.119106098783682
            ]
          ]
        ]
      }
    },
    {
      "type": "Feature",
      "id": 15,
      "properties": {
        "site_id": 15
      },
      "geometry": {
        "type": "Polygon",
        "coordinates": [
          [
            [
              120.0472687222533,
              24.114446854688435
            ],
            [
              120.0472687222533,
              24.114446854688435
            ],
            [
              120.0472687222533,
              24.192705544925776
            ],
            [
              119.85619061849226,
              24.192705544925776
            ],
            [
              120.0472687222533,
              24.114446854688435
            ]
          ]
        ]
      }
    },
    {
      "type": "Feature",
      "id": 16,
      "properties": {
        "site_id": 16
      },
      "geometry": {
        "type": "Polygon",
        "coordinates": [
          [
            [
              119.85619061849226,
              24.042546812638694
            ],
            [
              119.85619061849226,
              24.042546812638694
            ],
            [
              119.85619061849226,
              24.123719883571525
            ],
            [
              119.66473398891435,
              24.123719883571525
            ],
            [
              119.85619061849226,
              24.042546812638694
            ]
          ]
        ]
      }
    },
    {
      "type": "Feature",
      "id": 17,
      "properties": {
        "site_id": 17
      },
      "geometry": {
        "type": "Polygon",
        "coordinates": [
          [
            [
              120.0013296376542,
              24.043561350994043
            ],
            [
              120.0013296376542,
              24.043561350994043
            ],
            [
              120.0013296376542,
              24.119106098783682
            ],
            [
              119.80507352392533,
              24.119106098783682
            ],
            [
              120.0013296376542,
              24.043561350994043
            ]
          ]
        ]
      }
    },
    {
      "type": "Feature",
      "id": 18,
      "properties": {
        "site_id": 18
      },
      "geometry": {
        "type": "Polygon",
        "coordinates": [
          [
            [
              119.85725097063887,
              23.968955902819832
            ],
            [
              119.85725097063887,
              23.968955902819832
            ],
            [
              119.85725097063887,
              24.043959687069407
            ],
            [
              119.67632519438938,
              24.043959687069407
            ],
            [
              119.85725097063887,
              23.968955902819832
            ]
          ]
        ]
      }
    },
    {
      "type": "Feature",
      "id": 19,
      "properties": {
        "site_id": 19
      },
      "geometry": {
        "type": "Polygon",
        "coordinates": [
          [
            [
              119.95698345656537,
              23.93578768641043
            ],
            [
              119.95698345656537,
              23.93578768641043
            ],
            [
              119.95698345656537,
              24.044671593221715
            ],
            [
              119.8137811023293,
              24.044671593221715
            ],
            [
              119.95698345656537,
              23.93578768641043
            ]
          ]
        ]
      }
    },
    {
      "type": "Feature",
      "id": 20,
      "properties": {
        "site_id": 20
      },
      "geometry": {
        "type": "Polygon",
        "coordinates": [
          [
            [
              120.29109524078262,
              24.232914855560907
            ],
            [
              120.29109524078262,
              24.232914855560907
            ],
            [
              120.29109524078262,
              24.326161331625066
            ],
            [
              120.11269453548748,
              24.326161331625066
            ],
            [
              120.29109524078262,
              24.232914855560907
            ]
          ]
        ]
      }
    },
    {
      "type": "Feature",
      "id": 21,
      "properties": {
        "site_id": 21
      },
      "geometry": {
        "type": "Polygon",
        "coordinates": [
          [
            [
              120.24183534076174,
              24.163987943120038
            ],
            [
              120.24183534076174,
              24.163987943120038
            ],
            [
              120.24183534076174,
              24.254325569623965
            ],
            [
              120.0647893015052,
              24.254325569623965
            ],
            [
              120.24183534076174,
              24.163987943120038
            ]
          ]
        ]
      }
    },
    {
      "type": "Feature",
      "id": 22,
      "properties": {
        "site_id": 22
      },
      "geometry": {
        "type": "Polygon",
        "coordinates": [
          [
            [
              120.1873445541346,
              24.106176737858732
            ],
            [
              120.1873445541346,
              24.106176737858732
            ],
            [
              120.1873445541346,
              24.17899155727034
            ],
            [
              120.02546099703211,
              24.17899155727034
            ],
            [
              120.1873445541346,
              24.106176737858732
            ]
          ]
        ]
      }
    },
    {
      "type": "Feature",
      "id": 23,
      "properties": {
        "site_id": 23
      },
      "geometry": {
        "type": "Polygon",
        "coordinates": [
          [
            [
              120.14169743726276,
              24.045315985526017
            ],
            [
              120.14169743726276,
              24.045315985526017
            ],
            [
              120.14169743726276,
              24.117069659552122
            ],
            [
              119.97994205606551,
              24.117069659552122
            ],
            [
              120.14169743726276,
              24.045315985526017
            ]
          ]
        ]
      }
    },
    {
      "type": "Feature",
      "id": 24,
      "properties": {
        "site_id": 24
      },
      "geometry": {
        "type": "Polygon",
        "coordinates": [
          [
            [
              120.09387606387546,
              23.960372931714076
            ],
            [
              120.09387606387546,
              23.960372931714076
            ],
            [
              120.09387606387546,
              24.04554296914627
            ],
            [
              119.94485694684285,
              24.04554296914627
            ],
            [
              120.09387606387546,
              23.960372931714076
            ]
          ]
        ]
      }
    },
    {
      "type": "Feature",
      "id": 25,
      "properties": {
        "site_id": 25
      },
      "geometry": {
        "type": "Polygon",
        "coordinates": [
          [
            [
              120.02745172759498,
              23.865809353751526
            ],
            [
              120.02745172759498,
              23.865809353751526
            ],
            [
              120.02745172759498,
              23.98994767576242
            ],
            [
              119.89737641785395,
              23.98994767576242
            ],
            [
              120.02745172759498,
              23.865809353751526
            ]
          ]
        ]
      }
    },
    {
      "type": "Feature",
      "id": 26,
      "properties": {
        "site_id": 26
      },
      "geometry": {
        "type": "Polygon",
        "coordinates": [
          [
            [
              120.32578013672055,
              24.04548863760446
            ],
            [
              120.32578013672055,
              24.04548863760446
            ],
            [
              120.32578013672055,
              24.122489120100635
            ],
            [
              120.11774893782258,
              24.122489120100635
            ],
            [
              120.32578013672055,
              24.04548863760446
            ]
          ]
        ]
      }
    },
    {
      "type": "Feature",
      "id": 27,
      "properties": {
        "site_id": 27
      },
      "geometry": {
        "type": "Polygon",
        "coordinates": [
          [
            [
              120.21360305701732,
              23.958086426973527
            ],
            [
              120.21360305701732,
              23.958086426973527
            ],
            [
              120.21360305701732,
              24.04620474121578
            ],
            [
              120.05478180666242,
              24.04620474121578
            ],
            [
              120.21360305701732,
              23.958086426973527
            ]
          ]
        ]
      }
    },
    {
      "type": "Feature",
      "id": 28,
      "properties": {
        "site_id": 28
      },
      "geometry": {
        "type": "Polygon",
        "coordinates": [
          [
            [
              120.14926300735934,
              23.865737865275943
            ],
            [
              120.14926300735934,
              23.865737865275943
            ],
            [
              120.14926300735934,
              23.964725600672192
            ],
            [
              119.98820890457176,
              23.964725600672192
            ],
            [
              120.14926300735934,
              23.865737865275943
            ]
          ]
        ]
      }
    },
    {
      "type": "Feature",
      "id": 29,
      "properties": {
        "site_id": 29
      },
      "geometry": {
        "type": "Polygon",
        "coordinates": [
          [
            [
              120.22305563519579,
              23.85101130526459
            ],
            [
              120.22305563519579,
              23.85101130526459
            ],
            [
              120.22305563519579,
              23.94540358811774
            ],
            [
              120.07377426529271,
              23.94540358811774
            ],
            [
              120.22305563519579,
              23.85101130526459
            ]
          ]
        ]
      }
    },
    {
      "type": "Feature",
      "id": 30,
      "properties": {
        "site_id": 30
      },
      "geometry": {
        "type": "Polygon",
        "coordinates": [
          [
            [
              120.1669895304961,
              23.797176062136458
            ],
            [
              120.1669895304961,
              23.797176062136458
            ],
            [
              120.1669895304961,
              23.87920299718368
            ],
            [
              119.96491650558936,
              23.87920299718368
            ],
            [
              120.1669895304961,
              23.797176062136458
            ]
          ]
        ]
      }
    },
    {
      "type": "Feature",
      "id": 31,
      "properties": {
        "site_id": 31
      },
      "geometry": {
        "type": "Polygon",
        "coordinates": [
          [
            [
              120.11228528560736,
              23.72782756328841
            ],
            [
              120.11228528560736,
              23.72782756328841
            ],
            [
              120.11228528560736,
              23.81640107219119
            ],
            [
              119.95512309620847,
              23.81640107219119
            ],
            [
              120.11228528560736,
              23.72782756328841
            ]
          ]
        ]
      }
    },
    {
      "type": "Feature",
      "id": 32,
      "properties": {
        "site_id": 32
      },
      "geometry": {
        "type": "Polygon",
        "coordinates": [
          [
            [
              120.08197561990337,
              23.652200295881602
            ],
            [
              120.08197561990337,
              23.652200295881602
            ],
            [
              120.08197561990337,
              23.738251081798747
            ],
            [
              119.96279123318917,
              23.738251081798747
            ],
            [
              120.08197561990337,
              23.652200295881602
            ]
          ]
        ]
      }
    },
    {
      "type": "Feature",
      "id": 33,
      "properties": {
        "site_id": 33
      },
      "geometry": {
        "type": "Polygon",
        "coordinates": [
          [
            [
              120.06984570189695,
              23.180143771819193
            ],
            [
              120.06984570189695,
              23.180143771819193
            ],
            [
              120.06984570189695,
              23.238124546016376
            ],
            [
              119.9756975177102,
              23.238124546016376
            ],
            [
              120.06984570189695,
              23.180143771819193
            ]
          ]
        ]
      }
    },
    {
      "type": "Feature",
      "id": 34,
      "properties": {
        "site_id": 34
      },
      "geometry": {
        "type": "Polygon",
        "coordinates": [
          [
            [
              120.18650655291027,
              22.816302905984877
            ],
            [
              120.18650655291027,
              22.816302905984877
            ],
            [
              120.18650655291027,
              22.90753815820125
            ],
            [
              120.09382587335675,
              22.90753815820125
            ],
            [
              120.18650655291027,
              22.816302905984877
            ]
          ]
        ]
      }
    },
    {
      "type": "Feature",
      "id": 35,
      "properties": {
        "site_id": 35
      },
      "geometry": {
        "type": "Polygon",
        "coordinates": [
          [
            [
              120.22105628485852,
              22.72177396124804
            ],
            [
              120.22105628485852,
              22.72177396124804
            ],
            [
              120.22105628485852,
              22.77525085212176
            ],
            [
              120.14126590579367,
              22.77525085212176
            ],
            [
              120.22105628485852,
              22.72177396124804
            ]
          ]
        ]
      }
    },
    {
      "type": "Feature",
      "id": 36,
      "properties": {
        "site_id": 36
      },
      "geometry": {
        "type": "Polygon",
        "coordinates": [
          [
            [
              120.57795657029749,
              22.356914318503808
            ],
            [
              120.57795657029749,
              22.356914318503808
            ],
            [
              120.57795657029749,
              22.451568188181962
            ],
            [
              120.42934856486525,
              22.451568188181962
            ],
            [
              120.57795657029749,
              22.356914318503808
            ]
          ]
        ]
      }
    }
  ]
}